COSMOS 2251 DEB         
1 37330U 93036BKW 17345.54961184  .00000176  00000-0  49126-4 0  9995
2 37330  74.0213  68.5881 0066198 276.8505  82.5128 14.52640024439857
